{
    "links": {
        "self": "http://www.neowsapp.com/rest/v1/neo/3843276?api_key=iIulBulltgU6a56xZRHN4H3l9WmuAYTsLGpBGhQ2"
    },
    "id": "3843276",
    "neo_reference_id": "3843276",
    "name": "(2019 NW5)",
    "designation": "2019 NW5",
    "nasa_jpl_url": "http://ssd.jpl.nasa.gov/sbdb.cgi?sstr=3843276",
    "absolute_magnitude_h": 23.8,
    "estimated_diameter": {
        "kilometers": {
            "estimated_diameter_min": 0.046190746,
            "estimated_diameter_max": 0.1032856481
        },
        "meters": {
            "estimated_diameter_min": 46.1907460282,
            "estimated_diameter_max": 103.2856480504
        },
        "miles": {
            "estimated_diameter_min": 0.0287015901,
            "estimated_diameter_max": 0.0641787064
        },
        "feet": {
            "estimated_diameter_min": 151.544447199,
            "estimated_diameter_max": 338.8636855496
        }
    },
    "is_potentially_hazardous_asteroid": false,
    "close_approach_data": [
        {
            "close_approach_date": "2019-07-12",
            "close_approach_date_full": "2019-Jul-12 01:21",
            "epoch_date_close_approach": 1562894460000,
            "relative_velocity": {
                "kilometers_per_second": "15.5698285185",
                "kilometers_per_hour": "56051.3826666292",
                "miles_per_hour": "34828.1494130508"
            },
            "miss_distance": {
                "astronomical": "0.0467056434",
                "lunar": "18.1684952826",
                "kilometers": "6987064.769619558",
                "miles": "4341560.7269955804"
            },
            "orbiting_body": "Earth"
        },
        {
            "close_approach_date": "2114-01-04",
            "close_approach_date_full": "2114-Jan-04 19:16",
            "epoch_date_close_approach": 4544536560000,
            "relative_velocity": {
                "kilometers_per_second": "16.769530676",
                "kilometers_per_hour": "60370.3104336094",
                "miles_per_hour": "37511.7631691502"
            },
            "miss_distance": {
                "astronomical": "0.0110773425",
                "lunar": "4.3090862325",
                "kilometers": "1657146.843260475",
                "miles": "1029703.300425555"
            },
            "orbiting_body": "Earth"
        }
    ],
    "orbital_data": {
        "orbit_id": "4",
        "orbit_determination_date": "2019-07-27 14:02:29",
        "first_observation_date": "2019-07-09",
        "last_observation_date": "2019-07-14",
        "data_arc_in_days": 5,
        "observations_used": 77,
        "orbit_uncertainty": "8",
        "minimum_orbit_intersection": ".00633545",
        "jupiter_tisserand_invariant": "4.821",
        "epoch_osculation": "2458675.5",
        "eccentricity": ".455945664924346",
        "semi_major_axis": "1.309333336547321",
        "inclination": "18.44274911577713",
        "ascending_node_longitude": "282.7697896493839",
        "orbital_period": "547.2348726078877",
        "perihelion_distance": ".7123484778076402",
        "perihelion_argument": "95.53629756737357",
        "aphelion_distance": "1.906318195287002",
        "perihelion_time": "2458737.219146342433",
        "mean_anomaly": "319.3978859984011",
        "mean_motion": ".6578528124210976",
        "equinox": "J2000",
        "orbit_class": {
            "orbit_class_type": "APO",
            "orbit_class_description": "Near-Earth asteroid orbits which cross the Earth’s orbit similar to that of 1862 Apollo",
            "orbit_class_range": "a (semi-major axis) > 1.0 AU; q (perihelion) < 1.017 AU"
        }
    },
    "is_sentry_object": false
}